{"type":"FeatureCollection", "features": [
{"type":"Feature","geometry":{"type":"MultiPolygon","coordinates":[[[[93.837,7.24],[93.795,7.217],[93.743,7.213],[93.722,7.189],[93.681,7.195],[93.661,7.177],[93.663,7.139],[93.643,7.13],[93.659,7.084],[93.663,7.013],[93.684,7.016],[93.737,6.963],[93.762,6.876],[93.8,6.808],[93.799,6.766],[93.831,6.755],[93.847,6.812],[93.892,6.803],[93.889,6.846],[93.914,6.944],[93.94,6.959],[93.91,6.996],[93.923,7.01],[93.898,7.081],[93.881,7.091],[93.883,7.128],[93.87,7.202],[93.837,7.24]]],[[[93.699,7.447],[93.691,7.401],[93.662,7.375],[93.618,7.363],[93.623,7.322],[93.617,7.265],[93.636,7.243],[93.675,7.292],[93.714,7.312],[93.744,7.377],[93.715,7.398],[93.699,7.447]]],[[[93.369,8.024],[93.323,8.011],[93.301,7.961],[93.308,7.934],[93.335,7.9],[93.368,7.878],[93.389,7.902],[93.466,7.89],[93.452,7.939],[93.405,7.961],[93.369,8.024]]],[[[93.541,8.028],[93.498,7.984],[93.563,7.932],[93.573,7.985],[93.541,8.028]]],[[[93.513,8.235],[93.482,8.221],[93.466,8.185],[93.442,8.179],[93.451,8.12],[93.485,8.065],[93.54,8.043],[93.537,8.091],[93.494,8.146],[93.502,8.171],[93.535,8.199],[93.513,8.235]]],[[[93.117,8.357],[93.085,8.341],[93.076,8.273],[93.112,8.224],[93.179,8.194],[93.196,8.214],[93.149,8.242],[93.117,8.282],[93.132,8.348],[93.117,8.357]]],[[[92.786,9.245],[92.762,9.217],[92.717,9.209],[92.714,9.154],[92.727,9.125],[92.801,9.121],[92.826,9.137],[92.83,9.172],[92.818,9.212],[92.786,9.245]]],[[[92.518,10.901],[92.497,10.897],[92.426,10.818],[92.402,10.784],[92.373,10.783],[92.383,10.721],[92.381,10.67],[92.396,10.667],[92.419,10.615],[92.382,10.544],[92.452,10.543],[92.48,10.518],[92.531,10.516],[92.569,10.577],[92.54,10.613],[92.599,10.706],[92.584,10.741],[92.587,10.79],[92.564,10.816],[92.561,10.865],[92.518,10.901]]],[[[92.636,11.516],[92.609,11.458],[92.622,11.404],[92.587,11.401],[92.58,11.367],[92.598,11.345],[92.638,11.346],[92.689,11.37],[92.663,11.405],[92.684,11.432],[92.671,11.479],[92.636,11.516]]],[[[92.22,11.595],[92.204,11.548],[92.211,11.53],[92.269,11.522],[92.261,11.591],[92.22,11.595]]],[[[93.012,11.852],[93.044,11.81],[93.059,11.846],[93.012,11.852]]],[[[92.964,12.05],[92.935,11.983],[92.959,11.98],[93.024,11.888],[93.054,11.897],[93.039,11.948],[93.009,11.999],[93.01,12.031],[92.964,12.05]]],[[[92.99,12.11],[92.958,12.108],[92.957,12.07],[92.99,12.044],[93.004,12.104],[92.99,12.11]]],[[[92.991,12.158],[92.956,12.134],[92.98,12.111],[93.001,12.119],[92.993,12.136],[92.991,12.158]]],[[[93.028,12.167],[93.003,12.147],[92.995,12.132],[93.004,12.117],[93.007,12.098],[93.004,12.078],[93.034,12.101],[93.028,12.167]]],[[[92.696,12.239],[92.645,12.179],[92.624,12.107],[92.624,12.028],[92.611,11.988],[92.61,11.909],[92.581,11.906],[92.569,11.951],[92.52,11.899],[92.506,11.823],[92.532,11.796],[92.55,11.8],[92.55,11.72],[92.587,11.717],[92.591,11.672],[92.618,11.621],[92.602,11.605],[92.648,11.55],[92.645,11.522],[92.667,11.502],[92.692,11.504],[92.723,11.532],[92.754,11.614],[92.756,11.665],[92.721,11.683],[92.694,11.629],[92.672,11.629],[92.706,11.7],[92.738,11.69],[92.754,11.716],[92.769,11.799],[92.785,11.854],[92.779,11.892],[92.787,11.926],[92.715,11.946],[92.739,12.024],[92.726,12.059],[92.757,12.176],[92.712,12.191],[92.696,12.239]]],[[[92.735,12.24],[92.721,12.197],[92.732,12.185],[92.763,12.182],[92.762,12.229],[92.735,12.24]]],[[[93.082,12.079],[93.102,12.129],[93.086,12.156],[93.088,12.195],[93.067,12.212],[93.037,12.145],[93.057,12.097],[93.077,12.077],[93.082,12.079]]],[[[93.104,12.264],[93.065,12.252],[93.063,12.227],[93.1,12.2],[93.104,12.264]]],[[[92.81,12.313],[92.742,12.244],[92.77,12.232],[92.769,12.202],[92.757,12.15],[92.739,12.08],[92.771,12.068],[92.809,12.103],[92.83,12.167],[92.854,12.16],[92.877,12.251],[92.891,12.267],[92.872,12.297],[92.834,12.3],[92.81,12.313]]],[[[92.956,12.435],[92.931,12.418],[92.916,12.363],[92.932,12.36],[92.956,12.435]]],[[[92.897,12.927],[92.895,12.898],[92.875,12.883],[92.844,12.875],[92.84,12.876],[92.839,12.879],[92.842,12.886],[92.83,12.885],[92.823,12.896],[92.791,12.89],[92.781,12.824],[92.753,12.848],[92.722,12.825],[92.72,12.789],[92.74,12.725],[92.735,12.639],[92.7,12.6],[92.708,12.556],[92.698,12.542],[92.695,12.429],[92.7,12.333],[92.719,12.3],[92.75,12.299],[92.77,12.316],[92.81,12.316],[92.831,12.303],[92.882,12.333],[92.857,12.364],[92.828,12.424],[92.865,12.426],[92.915,12.406],[92.92,12.444],[92.948,12.454],[92.975,12.543],[92.955,12.604],[92.965,12.677],[92.962,12.754],[92.934,12.773],[92.954,12.806],[92.925,12.886],[92.907,12.885],[92.897,12.927]]],[[[92.695,12.991],[92.67,12.966],[92.679,12.947],[92.663,12.881],[92.647,12.861],[92.665,12.807],[92.703,12.845],[92.722,12.902],[92.719,12.982],[92.695,12.991]]],[[[93.06,13.369],[93.057,13.33],[93.09,13.334],[93.06,13.369]]],[[[92.829,13.21],[92.809,13.152],[92.844,13.142],[92.819,13.103],[92.794,13.09],[92.792,12.931],[92.801,12.902],[92.824,12.897],[92.829,12.887],[92.843,12.891],[92.841,12.877],[92.851,12.879],[92.856,12.879],[92.873,12.884],[92.86,12.903],[92.856,12.936],[92.876,12.945],[92.882,12.984],[92.922,13.043],[92.99,13.024],[93.02,13.05],[93.035,13.083],[93.032,13.178],[93.056,13.232],[93.057,13.257],[92.98,13.332],[92.999,13.35],[93.032,13.345],[93.048,13.375],[93.031,13.465],[93.044,13.531],[93.028,13.578],[92.982,13.569],[92.972,13.544],[92.917,13.538],[92.916,13.501],[92.869,13.465],[92.88,13.429],[92.842,13.41],[92.842,13.379],[92.823,13.326],[92.814,13.268],[92.83,13.243],[92.829,13.21]]],[[[93.015,13.677],[92.975,13.663],[93.029,13.637],[93.015,13.677]]],[[[72.768,21.657],[72.74,21.645],[72.669,21.644],[72.624,21.627],[72.576,21.571],[72.581,21.529],[72.647,21.548],[72.674,21.575],[72.728,21.586],[72.771,21.609],[72.82,21.624],[72.807,21.65],[72.768,21.657]]],[[[88.509,21.592],[88.485,21.553],[88.521,21.528],[88.539,21.544],[88.532,21.584],[88.509,21.592]]],[[[88.834,21.608],[88.831,21.551],[88.881,21.534],[88.906,21.548],[88.897,21.575],[88.834,21.608]]],[[[88.539,21.639],[88.532,21.595],[88.559,21.561],[88.587,21.604],[88.539,21.639]]],[[[88.309,21.705],[88.316,21.672],[88.306,21.615],[88.34,21.619],[88.35,21.647],[88.343,21.692],[88.309,21.705]]],[[[88.194,21.688],[88.18,21.686],[88.202,21.612],[88.231,21.642],[88.226,21.67],[88.194,21.688]]],[[[88.75,21.65],[88.718,21.644],[88.707,21.59],[88.742,21.562],[88.776,21.57],[88.797,21.597],[88.75,21.65]]],[[[88.415,21.725],[88.382,21.683],[88.412,21.653],[88.415,21.725]]],[[[88.388,21.763],[88.378,21.766],[88.348,21.76],[88.343,21.753],[88.349,21.723],[88.339,21.71],[88.357,21.686],[88.383,21.701],[88.365,21.733],[88.388,21.763]]],[[[88.422,21.811],[88.411,21.803],[88.384,21.779],[88.427,21.718],[88.42,21.653],[88.45,21.612],[88.472,21.675],[88.453,21.719],[88.463,21.783],[88.442,21.8],[88.432,21.798],[88.427,21.802],[88.426,21.809],[88.422,21.811]]],[[[88.58,21.717],[88.543,21.812],[88.516,21.787],[88.506,21.758],[88.537,21.645],[88.609,21.62],[88.591,21.659],[88.609,21.681],[88.58,21.717]]],[[[88.149,21.85],[88.132,21.874],[88.102,21.833],[88.077,21.777],[88.042,21.653],[88.067,21.636],[88.124,21.626],[88.171,21.74],[88.166,21.825],[88.149,21.85]]],[[[88.649,21.918],[88.636,21.921],[88.58,21.835],[88.586,21.802],[88.644,21.788],[88.653,21.872],[88.67,21.912],[88.649,21.918]]],[[[88.937,21.915],[88.912,21.931],[88.888,21.916],[88.849,21.913],[88.854,21.866],[88.837,21.843],[88.84,21.782],[88.877,21.767],[88.871,21.695],[88.891,21.652],[88.998,21.603],[89.068,21.617],[89.094,21.641],[89.056,21.733],[89.019,21.766],[89.012,21.794],[89.031,21.864],[88.984,21.895],[88.937,21.915]]],[[[88.568,21.958],[88.552,21.92],[88.587,21.894],[88.609,21.927],[88.568,21.958]]],[[[69.505,22.434],[69.524,22.389],[69.555,22.399],[69.505,22.434]]],[[[69.629,22.459],[69.59,22.431],[69.636,22.406],[69.657,22.427],[69.629,22.459]]],[[[70.012,22.589],[69.967,22.576],[69.964,22.546],[70.022,22.565],[70.012,22.589]]],[[[74.712,37.064],[74.681,37.087],[74.634,37.064],[74.589,37.059],[74.566,36.959],[74.543,36.961],[74.523,36.995],[74.451,36.998],[74.376,36.973],[74.319,36.93],[74.249,36.894],[74.156,36.911],[74.135,36.85],[74.089,36.842],[74.047,36.811],[74.008,36.834],[73.982,36.83],[73.907,36.884],[73.82,36.903],[73.734,36.899],[73.671,36.912],[73.667,36.881],[73.706,36.858],[73.706,36.838],[73.802,36.794],[73.84,36.794],[73.883,36.745],[73.867,36.701],[73.796,36.719],[73.775,36.702],[73.71,36.712],[73.683,36.687],[73.587,36.699],[73.579,36.722],[73.52,36.71],[73.41,36.735],[73.352,36.735],[73.345,36.715],[73.21,36.696],[73.163,36.708],[73.08,36.67],[73.074,36.629],[73.098,36.61],[73.052,36.533],[72.99,36.513],[72.946,36.466],[72.905,36.46],[72.859,36.434],[72.876,36.417],[72.864,36.379],[72.809,36.351],[72.8,36.328],[72.731,36.298],[72.708,36.274],[72.662,36.258],[72.624,36.269],[72.588,36.259],[72.574,36.224],[72.536,36.176],[72.562,36.14],[72.521,36.098],[72.517,36.067],[72.564,36.047],[72.585,36.025],[72.535,35.952],[72.513,35.939],[72.518,35.905],[72.556,35.898],[72.585,35.859],[72.631,35.856],[72.684,35.823],[72.723,35.852],[72.761,35.832],[72.808,35.859],[72.894,35.871],[72.898,35.841],[72.978,35.857],[73.035,35.85],[73.084,35.877],[73.141,35.838],[73.128,35.785],[73.126,35.721],[73.138,35.707],[73.213,35.669],[73.26,35.629],[73.3,35.611],[73.363,35.597],[73.398,35.557],[73.481,35.571],[73.537,35.563],[73.562,35.546],[73.628,35.569],[73.673,35.545],[73.721,35.549],[73.736,35.528],[73.779,35.523],[73.792,35.454],[73.727,35.419],[73.698,35.376],[73.695,35.318],[73.725,35.273],[73.708,35.222],[73.734,35.209],[73.776,35.237],[73.808,35.239],[73.866,35.206],[73.925,35.204],[73.957,35.168],[74,35.18],[74.034,35.147],[74.074,35.153],[74.134,35.11],[74.101,35.099],[74.071,35.058],[74.106,35.018],[74.066,34.998],[74.071,34.935],[74.039,34.921],[74.042,34.893],[74.02,34.872],[73.967,34.864],[73.958,34.836],[73.899,34.819],[73.834,34.81],[73.824,34.794],[73.767,34.794],[73.722,34.763],[73.705,34.722],[73.659,34.673],[73.695,34.647],[73.654,34.601],[73.651,34.563],[73.611,34.585],[73.556,34.59],[73.539,34.574],[73.448,34.567],[73.422,34.466],[73.428,34.426],[73.408,34.35],[73.442,34.325],[73.474,34.249],[73.496,34.215],[73.492,34.138],[73.516,33.999],[73.55,33.934],[73.591,33.897],[73.56,33.781],[73.595,33.751],[73.597,33.7],[73.567,33.668],[73.585,33.617],[73.629,33.571],[73.62,33.473],[73.602,33.417],[73.573,33.392],[73.57,33.343],[73.598,33.328],[73.613,33.294],[73.613,33.249],[73.668,33.202],[73.649,33.137],[73.631,33.118],[73.638,33.085],[73.7,33.085],[73.749,33.06],[73.748,33.036],[73.826,32.977],[73.826,33.004],[73.908,33.001],[73.97,32.969],[73.999,32.939],[74.06,32.932],[74.063,32.912],[74.211,32.873],[74.22,32.849],[74.303,32.83],[74.314,32.797],[74.355,32.767],[74.391,32.763],[74.415,32.785],[74.459,32.788],[74.486,32.764],[74.534,32.745],[74.59,32.751],[74.64,32.782],[74.635,32.807],[74.705,32.842],[74.704,32.817],[74.656,32.728],[74.653,32.697],[74.696,32.664],[74.657,32.63],[74.642,32.601],[74.663,32.545],[74.691,32.533],[74.682,32.494],[74.711,32.478],[74.798,32.477],[74.819,32.498],[74.953,32.447],[75.017,32.465],[75.03,32.495],[75.108,32.461],[75.132,32.43],[75.199,32.422],[75.221,32.398],[75.288,32.354],[75.323,32.344],[75.35,32.29],[75.382,32.269],[75.365,32.22],[75.331,32.22],[75.299,32.153],[75.261,32.101],[75.22,32.108],[75.179,32.076],[75.123,32.081],[75.102,32.059],[75.069,32.064],[75.001,32.041],[74.925,32.066],[74.829,31.999],[74.819,31.959],[74.781,31.956],[74.708,31.923],[74.677,31.926],[74.636,31.884],[74.616,31.89],[74.571,31.837],[74.551,31.779],[74.559,31.758],[74.514,31.74],[74.487,31.715],[74.532,31.681],[74.555,31.608],[74.575,31.604],[74.617,31.557],[74.613,31.527],[74.584,31.521],[74.653,31.455],[74.642,31.416],[74.609,31.422],[74.583,31.379],[74.554,31.367],[74.521,31.269],[74.532,31.252],[74.51,31.132],[74.548,31.122],[74.551,31.086],[74.607,31.095],[74.601,31.132],[74.64,31.12],[74.689,31.128],[74.702,31.092],[74.671,31.054],[74.597,31.038],[74.574,31.057],[74.548,31.032],[74.546,30.992],[74.509,30.967],[74.48,30.974],[74.397,30.909],[74.366,30.893],[74.369,30.857],[74.325,30.85],[74.299,30.805],[74.303,30.782],[74.261,30.77],[74.275,30.736],[74.233,30.725],[74.219,30.694],[74.149,30.632],[74.129,30.632],[74.072,30.523],[74.038,30.532],[73.993,30.514],[73.964,30.456],[73.965,30.425],[73.92,30.396],[73.903,30.349],[73.931,30.32],[73.964,30.257],[73.973,30.198],[73.828,30.092],[73.807,30.068],[73.597,30.019],[73.397,29.946],[73.346,29.776],[73.282,29.572],[73.084,29.236],[73.004,29.153],[72.946,29.028],[72.733,28.948],[72.479,28.812],[72.404,28.783],[72.299,28.67],[72.282,28.613],[72.206,28.394],[72.132,28.313],[72.004,28.219],[71.927,28.121],[71.898,27.961],[71.666,27.878],[71.383,27.873],[71.206,27.835],[70.906,27.71],[70.872,27.706],[70.759,27.721],[70.684,27.828],[70.677,27.922],[70.599,27.993],[70.589,28.01],[70.506,28.037],[70.439,28.02],[70.372,28.012],[70.296,27.936],[70.227,27.901],[70.132,27.806],[70.069,27.655],[70.026,27.563],[69.934,27.498],[69.862,27.402],[69.76,27.321],[69.703,27.284],[69.645,27.225],[69.586,27.183],[69.513,27.01],[69.497,26.866],[69.484,26.805],[69.51,26.744],[69.722,26.653],[69.792,26.598],[69.887,26.579],[69.935,26.582],[70.056,26.601],[70.117,26.587],[70.174,26.551],[70.185,26.482],[70.177,26.424],[70.185,26.374],[70.164,26.295],[70.175,26.252],[70.141,26.156],[70.083,26.083],[70.1,25.938],[70.174,25.828],[70.222,25.793],[70.252,25.755],[70.269,25.714],[70.387,25.674],[70.449,25.682],[70.53,25.683],[70.609,25.715],[70.647,25.713],[70.674,25.676],[70.667,25.531],[70.678,25.526],[70.672,25.42],[70.665,25.397],[70.737,25.333],[70.752,25.278],[70.889,25.148],[70.92,24.996],[70.938,24.939],[70.992,24.863],[71.034,24.788],[71.065,24.717],[71.096,24.689],[71.075,24.662],[71.009,24.635],[70.986,24.595],[70.987,24.543],[71.005,24.523],[70.999,24.444],[71.038,24.432],[71.103,24.436],[71.12,24.402],[71.084,24.394],[71.049,24.356],[71.02,24.347],[70.987,24.365],[70.948,24.348],[70.879,24.301],[70.876,24.28],[70.907,24.259],[70.851,24.244],[70.805,24.221],[70.714,24.216],[70.644,24.225],[70.571,24.252],[70.585,24.277],[70.562,24.352],[70.58,24.363],[70.599,24.405],[70.573,24.422],[70.476,24.39],[70.412,24.376],[70.368,24.351],[70.326,24.352],[70.254,24.326],[70.11,24.295],[70.067,24.199],[70.025,24.171],[69.731,24.171],[69.595,24.292],[69.504,24.269],[69.446,24.28],[69.367,24.27],[69.313,24.282],[69.193,24.236],[69.095,24.274],[69.012,24.224],[68.985,24.228],[68.945,24.302],[68.907,24.28],[68.875,24.212],[68.857,24.214],[68.831,24.312],[68.765,24.296],[68.769,24.267],[68.753,23.971],[68.397,23.97],[68.369,23.985],[68.341,23.97],[68.329,23.922],[68.287,23.932],[68.251,23.896],[68.209,23.875],[68.198,23.836],[68.203,23.767],[68.182,23.722],[68.206,23.68],[68.179,23.614],[68.209,23.583],[68.278,23.56],[68.291,23.571],[68.387,23.595],[68.421,23.733],[68.465,23.742],[68.483,23.732],[68.527,23.746],[68.581,23.821],[68.658,23.833],[68.688,23.846],[68.711,23.83],[68.649,23.789],[68.635,23.76],[68.562,23.683],[68.543,23.653],[68.511,23.639],[68.484,23.548],[68.535,23.434],[68.568,23.414],[68.681,23.312],[68.715,23.264],[68.66,23.198],[68.683,23.153],[68.711,23.152],[68.734,23.119],[68.754,23.123],[68.761,23.079],[68.812,23.059],[69.098,22.897],[69.195,22.839],[69.269,22.825],[69.322,22.832],[69.345,22.822],[69.469,22.798],[69.531,22.802],[69.568,22.814],[69.647,22.796],[69.712,22.806],[69.856,22.869],[69.899,22.871],[69.939,22.898],[69.97,22.9],[70.017,22.92],[70.037,22.953],[70.081,22.967],[70.121,22.963],[70.164,22.938],[70.231,22.955],[70.219,23.063],[70.174,23.077],[70.213,23.14],[70.209,23.16],[70.268,23.178],[70.296,23.219],[70.342,23.22],[70.429,23.236],[70.428,23.218],[70.476,23.2],[70.502,23.178],[70.579,23.178],[70.649,23.192],[70.656,23.221],[70.686,23.21],[70.746,23.222],[70.776,23.249],[70.814,23.23],[70.837,23.249],[70.86,23.208],[70.848,23.142],[70.813,23.162],[70.779,23.159],[70.694,23.12],[70.639,23.081],[70.629,23.062],[70.594,23.055],[70.548,23],[70.539,22.964],[70.479,22.975],[70.456,22.95],[70.54,22.925],[70.486,22.882],[70.462,22.831],[70.413,22.818],[70.31,22.743],[70.268,22.705],[70.264,22.655],[70.231,22.631],[70.179,22.568],[70.149,22.512],[70.112,22.499],[70.079,22.515],[70.01,22.5],[69.988,22.509],[69.964,22.478],[69.888,22.455],[69.874,22.43],[69.833,22.442],[69.809,22.401],[69.748,22.433],[69.731,22.485],[69.7,22.461],[69.701,22.396],[69.663,22.394],[69.656,22.36],[69.592,22.359],[69.543,22.377],[69.499,22.366],[69.49,22.338],[69.423,22.316],[69.352,22.327],[69.322,22.292],[69.255,22.267],[69.238,22.223],[69.179,22.213],[69.137,22.195],[69.159,22.277],[69.165,22.35],[69.199,22.401],[69.163,22.404],[69.082,22.388],[69.034,22.394],[69.054,22.466],[69.006,22.44],[68.957,22.368],[68.956,22.339],[68.936,22.312],[68.954,22.245],[69.048,22.137],[69.192,21.983],[69.284,21.894],[69.365,21.835],[69.433,21.767],[69.477,21.734],[69.566,21.652],[69.603,21.637],[69.707,21.534],[69.815,21.417],[69.96,21.251],[70.073,21.132],[70.257,20.973],[70.358,20.905],[70.396,20.892],[70.425,20.862],[70.586,20.782],[70.75,20.718],[70.789,20.711],[70.822,20.692],[70.846,20.707],[70.92,20.711],[70.953,20.704],[70.998,20.716],[71,20.735],[71.073,20.735],[71.092,20.757],[71.141,20.757],[71.165,20.781],[71.302,20.836],[71.371,20.854],[71.394,20.868],[71.44,20.87],[71.477,20.889],[71.527,20.951],[71.566,20.949],[71.624,20.968],[71.649,20.995],[71.675,20.995],[71.717,21.021],[71.783,21.031],[71.798,21.055],[71.898,21.11],[71.972,21.125],[72.086,21.19],[72.112,21.199],[72.084,21.246],[72.132,21.339],[72.176,21.393],[72.211,21.421],[72.256,21.502],[72.269,21.571],[72.306,21.629],[72.29,21.681],[72.25,21.743],[72.237,21.78],[72.242,21.83],[72.217,21.867],[72.203,21.914],[72.212,21.962],[72.269,21.971],[72.302,22.035],[72.43,22.138],[72.499,22.179],[72.531,22.216],[72.576,22.233],[72.657,22.225],[72.695,22.201],[72.775,22.229],[72.849,22.275],[72.85,22.241],[72.823,22.209],[72.783,22.193],[72.783,22.158],[72.705,22.183],[72.652,22.215],[72.606,22.213],[72.581,22.199],[72.548,22.145],[72.537,22.075],[72.549,21.991],[72.528,21.938],[72.543,21.912],[72.602,21.929],[72.641,21.957],[72.708,21.953],[72.694,21.928],[72.698,21.889],[72.646,21.897],[72.623,21.877],[72.593,21.805],[72.605,21.756],[72.532,21.717],[72.534,21.671],[72.548,21.659],[72.612,21.684],[72.712,21.68],[72.737,21.691],[72.764,21.669],[72.818,21.658],[72.85,21.684],[72.881,21.686],[72.873,21.645],[72.842,21.656],[72.82,21.611],[72.785,21.587],[72.75,21.542],[72.702,21.525],[72.66,21.474],[72.605,21.441],[72.6,21.4],[72.6,21.29],[72.638,21.211],[72.619,21.115],[72.638,21.085],[72.665,21.108],[72.696,21.085],[72.733,21.078],[72.726,21.015],[72.744,20.959],[72.781,20.918],[72.829,20.81],[72.82,20.794],[72.853,20.757],[72.849,20.737],[72.897,20.593],[72.886,20.542],[72.889,20.509],[72.82,20.434],[72.813,20.39],[72.824,20.367],[72.777,20.332],[72.742,20.241],[72.749,20.207],[72.739,20.118],[72.726,20.08],[72.708,20.07],[72.721,19.989],[72.713,19.968],[72.664,19.933],[72.677,19.919],[72.679,19.867],[72.642,19.844],[72.654,19.811],[72.681,19.8],[72.672,19.761],[72.677,19.715],[72.708,19.704],[72.699,19.662],[72.725,19.608],[72.709,19.599],[72.722,19.528],[72.72,19.501],[72.75,19.489],[72.743,19.458],[72.766,19.362],[72.801,19.324],[72.786,19.306],[72.781,19.234],[72.795,19.195],[72.782,19.159],[72.822,19.119],[72.824,19.056],[72.839,19.033],[72.811,19.002],[72.799,18.957],[72.843,18.934],[72.855,18.996],[72.902,18.979],[72.947,18.987],[72.956,18.957],[72.937,18.916],[72.905,18.905],[72.921,18.852],[72.975,18.84],[72.987,18.813],[72.965,18.795],[72.93,18.823],[72.909,18.8],[72.866,18.808],[72.859,18.771],[72.862,18.721],[72.851,18.699],[72.875,18.632],[72.922,18.547],[72.894,18.473],[72.923,18.393],[72.912,18.365],[72.954,18.334],[72.986,18.282],[72.974,18.266],[72.935,18.273],[72.935,18.229],[72.979,18.197],[72.989,18.158],[72.971,18.133],[73.008,18.05],[73.005,18.02],[73.051,17.931],[73.055,17.9],[73.075,17.882],[73.092,17.812],[73.103,17.803],[73.135,17.713],[73.114,17.69],[73.132,17.655],[73.138,17.611],[73.153,17.599],[73.141,17.547],[73.174,17.517],[73.192,17.47],[73.184,17.456],[73.184,17.384],[73.203,17.39],[73.226,17.336],[73.222,17.267],[73.247,17.211],[73.289,17.063],[73.279,16.993],[73.3,16.982],[73.282,16.898],[73.295,16.861],[73.296,16.817],[73.318,16.796],[73.304,16.766],[73.305,16.73],[73.33,16.687],[73.34,16.581],[73.313,16.535],[73.328,16.507],[73.386,16.358],[73.394,16.313],[73.413,16.269],[73.43,16.199],[73.44,16.191],[73.458,16.118],[73.468,16.047],[73.484,16.034],[73.491,15.984],[73.51,15.94],[73.536,15.938],[73.587,15.911],[73.623,15.855],[73.654,15.792],[73.664,15.74],[73.689,15.718],[73.733,15.615],[73.768,15.499],[73.79,15.464],[73.783,15.41],[73.808,15.377],[73.842,15.358],[73.879,15.362],[73.902,15.31],[73.95,15.143],[73.927,15.108],[73.932,15.082],[73.981,15.053],[73.998,15.02],[74.026,15.006],[74.05,14.957],[74.045,14.916],[74.096,14.898],[74.125,14.84],[74.125,14.777],[74.142,14.779],[74.193,14.735],[74.249,14.741],[74.283,14.677],[74.281,14.61],[74.315,14.543],[74.317,14.52],[74.355,14.522],[74.394,14.418],[74.413,14.317],[74.454,14.2],[74.469,14.189],[74.486,14.095],[74.514,13.987],[74.549,13.949],[74.571,13.944],[74.59,13.91],[74.619,13.824],[74.651,13.666],[74.664,13.652],[74.682,13.543],[74.692,13.452],[74.698,13.343],[74.716,13.313],[74.793,12.998],[74.824,12.849],[74.916,12.642],[74.974,12.5],[75.032,12.39],[75.039,12.39],[75.097,12.262],[75.159,12.103],[75.201,12.009],[75.229,12.023],[75.25,12.008],[75.365,11.853],[75.381,11.859],[75.453,11.771],[75.508,11.732],[75.542,11.683],[75.561,11.641],[75.617,11.489],[75.684,11.446],[75.714,11.394],[75.745,11.322],[75.803,11.16],[75.83,11.115],[75.848,11.057],[75.876,10.942],[75.91,10.79],[76.033,10.512],[76.069,10.45],[76.116,10.334],[76.136,10.261],[76.178,10.142],[76.202,10.053],[76.26,9.883],[76.279,9.781],[76.3,9.59],[76.313,9.51],[76.352,9.378],[76.515,9.017],[76.542,8.913],[76.565,8.88],[76.61,8.859],[76.672,8.784],[76.712,8.723],[76.896,8.496],[76.961,8.418],[76.971,8.392],[77.06,8.32],[77.167,8.24],[77.235,8.181],[77.298,8.147],[77.316,8.122],[77.352,8.122],[77.423,8.1],[77.551,8.078],[77.559,8.12],[77.62,8.152],[77.721,8.169],[77.784,8.207],[77.804,8.241],[77.889,8.274],[77.972,8.333],[78.057,8.379],[78.063,8.415],[78.13,8.497],[78.124,8.534],[78.137,8.589],[78.127,8.617],[78.136,8.694],[78.17,8.745],[78.158,8.797],[78.166,8.866],[78.189,8.929],[78.215,8.966],[78.272,9.004],[78.415,9.115],[78.531,9.138],[78.579,9.131],[78.65,9.16],[78.648,9.185],[78.678,9.196],[78.715,9.189],[78.733,9.212],[78.875,9.257],[78.983,9.275],[79.069,9.261],[79.143,9.276],[79.209,9.282],[79.221,9.26],[79.291,9.25],[79.423,9.179],[79.327,9.259],[79.315,9.279],[79.335,9.309],[79.313,9.328],[79.271,9.295],[79.21,9.283],[79.071,9.295],[78.98,9.361],[78.924,9.426],[78.9,9.469],[78.913,9.506],[78.925,9.585],[78.96,9.631],[78.98,9.69],[79.037,9.763],[79.059,9.773],[79.083,9.816],[79.115,9.849],[79.117,9.872],[79.153,9.928],[79.244,10.027],[79.25,10.05],[79.229,10.089],[79.228,10.152],[79.242,10.185],[79.279,10.215],[79.267,10.229],[79.329,10.284],[79.36,10.291],[79.388,10.318],[79.513,10.313],[79.594,10.303],[79.766,10.272],[79.858,10.282],[79.88,10.305],[79.867,10.417],[79.854,10.602],[79.85,10.858],[79.858,11.129],[79.856,11.176],[79.832,11.356],[79.807,11.444],[79.777,11.488],[79.757,11.556],[79.761,11.624],[79.799,11.802],[79.847,11.978],[79.879,12.054],[80.067,12.346],[80.113,12.402],[80.157,12.469],[80.169,12.537],[80.255,12.782],[80.249,12.857],[80.259,12.934],[80.287,13.066],[80.301,13.09],[80.299,13.138],[80.313,13.167],[80.345,13.281],[80.347,13.313],[80.325,13.444],[80.301,13.478],[80.276,13.547],[80.243,13.616],[80.233,13.677],[80.24,13.734],[80.254,13.781],[80.221,13.875],[80.198,13.917],[80.15,14.032],[80.136,14.087],[80.126,14.164],[80.129,14.219],[80.147,14.301],[80.172,14.373],[80.18,14.509],[80.193,14.593],[80.166,14.623],[80.144,14.698],[80.115,14.736],[80.095,14.79],[80.084,14.883],[80.064,14.947],[80.047,15.083],[80.056,15.123],[80.09,15.215],[80.081,15.241],[80.086,15.283],[80.11,15.345],[80.142,15.395],[80.2,15.465],[80.239,15.606],[80.282,15.685],[80.362,15.763],[80.41,15.793],[80.497,15.836],[80.575,15.862],[80.649,15.878],[80.727,15.879],[80.782,15.863],[80.811,15.834],[80.791,15.821],[80.818,15.743],[80.816,15.713],[80.846,15.706],[80.937,15.714],[80.998,15.747],[81.014,15.771],[81.004,15.834],[81.061,15.9],[81.148,15.975],[81.15,16.024],[81.196,16.115],[81.214,16.207],[81.268,16.278],[81.314,16.309],[81.392,16.34],[81.487,16.354],[81.538,16.351],[81.691,16.327],[81.734,16.315],[81.859,16.375],[81.949,16.396],[82.231,16.541],[82.264,16.553],[82.299,16.592],[82.287,16.621],[82.31,16.64],[82.338,16.69],[82.357,16.807],[82.354,16.851],[82.319,16.851],[82.266,16.87],[82.241,16.908],[82.269,16.957],[82.288,17.016],[82.319,17.057],[82.422,17.156],[82.472,17.199],[82.559,17.26],[82.726,17.355],[82.87,17.418],[82.995,17.475],[83.039,17.517],[83.163,17.561],[83.232,17.609],[83.242,17.635],[83.282,17.661],[83.296,17.693],[83.343,17.723],[83.363,17.764],[83.411,17.809],[83.41,17.843],[83.444,17.873],[83.469,17.911],[83.544,17.963],[83.569,18.012],[83.695,18.099],[83.787,18.147],[83.861,18.174],[83.889,18.196],[83.935,18.209],[84.071,18.277],[84.128,18.315],[84.147,18.373],[84.231,18.454],[84.356,18.556],[84.368,18.593],[84.437,18.657],[84.454,18.693],[84.512,18.758],[84.551,18.79],[84.557,18.817],[84.604,18.89],[84.684,18.967],[84.794,19.122],[84.811,19.157],[84.85,19.202],[84.93,19.276],[84.984,19.318],[85.079,19.374],[85.098,19.406],[85.165,19.462],[85.285,19.546],[85.381,19.603],[85.499,19.657],[85.678,19.744],[85.8,19.787],[85.948,19.828],[86.058,19.85],[86.224,19.899],[86.31,19.941],[86.378,19.967],[86.415,19.999],[86.434,20.052],[86.491,20.116],[86.52,20.17],[86.605,20.229],[86.722,20.29],[86.773,20.329],[86.784,20.381],[86.728,20.399],[86.729,20.441],[86.775,20.521],[86.876,20.596],[87.026,20.693],[87,20.698],[87.006,20.735],[86.992,20.77],[86.961,20.783],[86.98,20.858],[86.918,20.959],[86.894,21.013],[86.867,21.051],[86.842,21.125],[86.842,21.204],[86.831,21.215],[86.89,21.308],[86.983,21.411],[87.108,21.5],[87.169,21.533],[87.254,21.554],[87.369,21.553],[87.381,21.57],[87.449,21.6],[87.551,21.632],[87.674,21.653],[87.718,21.668],[87.747,21.7],[87.785,21.694],[87.861,21.754],[87.892,21.796],[87.936,21.819],[87.968,21.855],[88.012,21.921],[88.052,22.007],[88.154,22.064],[88.19,22.117],[88.117,22.209],[88.183,22.191],[88.205,22.165],[88.224,22.09],[88.211,22.028],[88.155,21.966],[88.173,21.915],[88.164,21.883],[88.215,21.778],[88.212,21.72],[88.237,21.644],[88.218,21.616],[88.276,21.557],[88.31,21.581],[88.284,21.601],[88.304,21.67],[88.275,21.732],[88.3,21.781],[88.321,21.709],[88.344,21.721],[88.34,21.757],[88.355,21.767],[88.375,21.768],[88.379,21.788],[88.419,21.813],[88.428,21.81],[88.43,21.8],[88.445,21.803],[88.456,21.794],[88.46,21.796],[88.449,21.806],[88.449,21.818],[88.488,21.855],[88.526,21.852],[88.547,21.881],[88.541,21.966],[88.595,21.989],[88.679,21.943],[88.71,21.996],[88.725,21.98],[88.723,21.932],[88.696,21.843],[88.712,21.8],[88.694,21.745],[88.711,21.69],[88.75,21.658],[88.808,21.663],[88.804,21.637],[88.845,21.627],[88.862,21.641],[88.843,21.682],[88.841,21.717],[88.864,21.764],[88.833,21.766],[88.82,21.838],[88.84,21.886],[88.799,21.922],[88.824,21.941],[88.842,21.925],[88.887,21.922],[88.93,21.944],[88.994,21.907],[89.07,21.934],[89.08,21.984],[89.073,22.019],[89.043,22.062],[89.038,22.092],[89.069,22.151],[89.072,22.197],[89.037,22.235],[89.034,22.258],[88.996,22.285],[89.024,22.299],[88.984,22.327],[88.994,22.388],[88.972,22.41],[88.998,22.435],[88.96,22.551],[88.942,22.559],[88.927,22.649],[88.961,22.689],[88.928,22.718],[88.911,22.758],[88.936,22.791],[88.958,22.797],[88.969,22.844],[88.95,22.873],[88.927,22.873],[88.898,22.898],[88.894,22.952],[88.859,22.947],[88.865,22.999],[88.884,23.037],[88.868,23.07],[88.935,23.172],[88.946,23.206],[88.912,23.234],[88.881,23.23],[88.814,23.252],[88.806,23.219],[88.779,23.221],[88.719,23.255],[88.696,23.302],[88.727,23.3],[88.761,23.384],[88.749,23.398],[88.765,23.449],[88.787,23.469],[88.792,23.503],[88.746,23.483],[88.674,23.549],[88.639,23.597],[88.602,23.607],[88.574,23.667],[88.568,23.715],[88.58,23.758],[88.571,23.783],[88.601,23.815],[88.588,23.828],[88.587,23.871],[88.654,23.867],[88.664,23.882],[88.735,23.915],[88.732,23.961],[88.761,24.006],[88.735,24.017],[88.742,24.057],[88.7,24.094],[88.708,24.12],[88.746,24.147],[88.732,24.172],[88.741,24.254],[88.725,24.298],[88.697,24.315],[88.588,24.315],[88.555,24.293],[88.527,24.344],[88.508,24.342],[88.43,24.384],[88.389,24.372],[88.328,24.385],[88.263,24.446],[88.204,24.459],[88.106,24.546],[88.039,24.645],[88.009,24.668],[88.063,24.722],[88.066,24.751],[88.111,24.812],[88.166,24.863],[88.153,24.884],[88.15,24.932],[88.17,24.95],[88.225,24.96],[88.261,24.919],[88.267,24.887],[88.328,24.904],[88.341,24.941],[88.381,24.939],[88.395,24.969],[88.436,25.006],[88.447,25.042],[88.441,25.128],[88.46,25.141],[88.442,25.185],[88.48,25.211],[88.56,25.191],[88.58,25.177],[88.62,25.205],[88.673,25.198],[88.713,25.207],[88.799,25.171],[88.831,25.206],[88.865,25.201],[88.875,25.179],[88.932,25.181],[88.958,25.209],[88.951,25.244],[89.009,25.297],[88.939,25.301],[88.885,25.326],[88.838,25.368],[88.827,25.446],[88.83,25.49],[88.81,25.523],[88.708,25.5],[88.695,25.474],[88.646,25.48],[88.603,25.516],[88.573,25.509],[88.537,25.521],[88.5,25.551],[88.5,25.584],[88.472,25.585],[88.445,25.616],[88.454,25.664],[88.402,25.673],[88.357,25.721],[88.267,25.782],[88.27,25.808],[88.19,25.802],[88.173,25.787],[88.116,25.798],[88.102,25.828],[88.114,25.854],[88.094,25.874],[88.086,25.915],[88.111,25.933],[88.121,25.975],[88.172,26.033],[88.182,26.074],[88.158,26.095],[88.177,26.148],[88.216,26.163],[88.247,26.19],[88.353,26.226],[88.35,26.282],[88.372,26.306],[88.435,26.335],[88.444,26.36],[88.48,26.351],[88.523,26.361],[88.485,26.46],[88.361,26.485],[88.349,26.509],[88.376,26.595],[88.415,26.633],[88.421,26.571],[88.448,26.535],[88.484,26.541],[88.53,26.481],[88.565,26.457],[88.623,26.471],[88.63,26.435],[88.65,26.43],[88.704,26.342],[88.675,26.32],[88.668,26.272],[88.759,26.295],[88.794,26.31],[88.838,26.233],[88.87,26.234],[88.861,26.272],[88.876,26.287],[88.926,26.284],[88.953,26.242],[89.021,26.245],[89.063,26.256],[89.04,26.281],[88.983,26.309],[88.987,26.348],[88.91,26.37],[88.928,26.433],[88.965,26.457],[89.041,26.4],[89.092,26.394],[89.09,26.362],[89.113,26.318],[89.142,26.215],[89.135,26.181],[89.155,26.14],[89.22,26.127],[89.283,26.064],[89.357,26.008],[89.427,26.013],[89.48,25.996],[89.519,26.009],[89.55,25.966],[89.587,25.98],[89.579,26.026],[89.637,26.075],[89.63,26.118],[89.597,26.135],[89.614,26.166],[89.646,26.164],[89.636,26.224],[89.675,26.199],[89.71,26.156],[89.744,26.159],[89.784,26.105],[89.821,26.012],[89.869,25.981],[89.839,25.941],[89.887,25.945],[89.833,25.871],[89.827,25.81],[89.841,25.759],[89.834,25.717],[89.871,25.663],[89.883,25.617],[89.85,25.494],[89.852,25.466],[89.833,25.439],[89.82,25.379],[89.841,25.319],[89.831,25.296],[89.877,25.285],[89.909,25.308],[89.967,25.304],[89.981,25.281],[90.118,25.223],[90.171,25.223],[90.196,25.211],[90.31,25.189],[90.33,25.194],[90.37,25.163],[90.451,25.152],[90.524,25.174],[90.627,25.173],[90.663,25.191],[90.699,25.157],[90.733,25.155],[90.769,25.183],[90.85,25.158],[90.928,25.162],[91.074,25.199],[91.125,25.194],[91.195,25.202],[91.26,25.201],[91.337,25.174],[91.365,25.178],[91.457,25.148],[91.478,25.134],[91.51,25.147],[91.556,25.15],[91.577,25.172],[91.638,25.123],[91.833,25.178],[91.921,25.181],[91.967,25.176],[91.999,25.184],[92.074,25.185],[92.133,25.16],[92.136,25.14],[92.178,25.126],[92.255,25.085],[92.309,25.07],[92.349,25.073],[92.367,25.048],[92.426,25.029],[92.42,24.969],[92.448,24.965],[92.494,24.917],[92.492,24.876],[92.445,24.872],[92.427,24.853],[92.385,24.853],[92.349,24.89],[92.316,24.895],[92.297,24.916],[92.25,24.909],[92.238,24.868],[92.248,24.832],[92.27,24.83],[92.289,24.788],[92.296,24.737],[92.276,24.711],[92.25,24.649],[92.232,24.571],[92.231,24.531],[92.213,24.504],[92.166,24.531],[92.152,24.502],[92.167,24.435],[92.137,24.425],[92.12,24.388],[92.097,24.373],[91.97,24.385],[91.958,24.356],[91.92,24.337],[91.941,24.268],[91.906,24.139],[91.879,24.147],[91.873,24.175],[91.844,24.197],[91.745,24.247],[91.76,24.142],[91.728,24.143],[91.681,24.189],[91.659,24.195],[91.634,24.138],[91.636,24.102],[91.545,24.074],[91.414,24.11],[91.374,24.106],[91.397,24.05],[91.363,23.983],[91.304,23.988],[91.241,23.923],[91.23,23.881],[91.254,23.838],[91.21,23.749],[91.169,23.75],[91.149,23.712],[91.154,23.688],[91.194,23.69],[91.193,23.654],[91.161,23.664],[91.158,23.622],[91.208,23.543],[91.218,23.5],[91.252,23.481],[91.252,23.454],[91.276,23.415],[91.296,23.341],[91.29,23.319],[91.324,23.237],[91.325,23.168],[91.347,23.102],[91.396,23.056],[91.417,23.082],[91.385,23.156],[91.386,23.228],[91.416,23.263],[91.449,23.26],[91.503,23.192],[91.491,23.158],[91.511,23.104],[91.55,23.038],[91.542,22.999],[91.617,22.944],[91.646,22.978],[91.721,22.988],[91.77,23.037],[91.775,23.07],[91.804,23.063],[91.834,23.095],[91.808,23.139],[91.805,23.181],[91.788,23.207],[91.768,23.311],[91.819,23.35],[91.857,23.405],[91.9,23.439],[91.943,23.435],[91.939,23.463],[91.97,23.482],[91.956,23.526],[91.954,23.61],[91.94,23.675],[91.957,23.734],[91.978,23.733],[92.001,23.671],[92.04,23.649],[92.073,23.647],[92.088,23.68],[92.123,23.697],[92.144,23.733],[92.172,23.739],[92.178,23.708],[92.203,23.706],[92.226,23.655],[92.244,23.722],[92.266,23.725],[92.291,23.681],[92.273,23.644],[92.289,23.598],[92.308,23.578],[92.32,23.512],[92.316,23.487],[92.333,23.436],[92.357,23.411],[92.359,23.368],[92.381,23.352],[92.368,23.325],[92.385,23.307],[92.401,23.237],[92.351,23.234],[92.366,23.127],[92.358,23.106],[92.392,23.054],[92.374,22.971],[92.376,22.929],[92.42,22.911],[92.464,22.855],[92.455,22.825],[92.489,22.746],[92.517,22.722],[92.525,22.64],[92.538,22.575],[92.524,22.561],[92.551,22.513],[92.544,22.495],[92.553,22.411],[92.567,22.371],[92.591,22.255],[92.606,22.123],[92.575,22.116],[92.6,22.058],[92.593,22.032],[92.613,21.99],[92.635,21.983],[92.652,22.016],[92.679,22.011],[92.682,22.103],[92.695,22.153],[92.734,22.136],[92.818,22.085],[92.859,22.067],[92.865,22.024],[92.914,21.975],[92.952,22.03],[92.978,21.997],[93.014,22.102],[93.056,22.1],[93.04,22.139],[93.043,22.199],[93.111,22.204],[93.127,22.173],[93.161,22.198],[93.145,22.249],[93.178,22.246],[93.202,22.265],[93.19,22.303],[93.187,22.404],[93.163,22.451],[93.131,22.467],[93.133,22.494],[93.11,22.525],[93.116,22.564],[93.14,22.59],[93.094,22.68],[93.091,22.704],[93.107,22.753],[93.095,22.807],[93.154,22.917],[93.123,23.008],[93.127,23.044],[93.202,23.055],[93.242,23.007],[93.294,23.007],[93.327,23.039],[93.358,23.11],[93.381,23.187],[93.381,23.228],[93.366,23.305],[93.403,23.389],[93.389,23.449],[93.395,23.504],[93.418,23.542],[93.429,23.588],[93.417,23.642],[93.437,23.687],[93.41,23.704],[93.392,23.757],[93.403,23.807],[93.385,23.848],[93.391,23.929],[93.365,23.934],[93.334,23.985],[93.328,24.077],[93.342,24.102],[93.42,24.066],[93.438,24.017],[93.454,24.011],[93.471,23.965],[93.5,23.944],[93.607,23.971],[93.623,24.011],[93.725,23.997],[93.76,24.003],[93.773,23.968],[93.819,23.924],[93.859,23.932],[93.895,23.953],[93.945,23.946],[93.989,23.928],[94.062,23.881],[94.084,23.881],[94.121,23.833],[94.157,23.864],[94.165,23.93],[94.187,23.941],[94.199,23.988],[94.234,24.039],[94.252,24.082],[94.262,24.167],[94.284,24.185],[94.293,24.236],[94.315,24.253],[94.329,24.33],[94.354,24.334],[94.398,24.407],[94.421,24.48],[94.457,24.552],[94.492,24.575],[94.529,24.618],[94.55,24.659],[94.555,24.715],[94.602,24.709],[94.629,24.761],[94.619,24.78],[94.634,24.835],[94.674,24.875],[94.713,24.935],[94.697,24.959],[94.744,25.037],[94.736,25.135],[94.697,25.155],[94.641,25.166],[94.592,25.193],[94.578,25.216],[94.585,25.265],[94.635,25.358],[94.635,25.395],[94.66,25.406],[94.671,25.443],[94.693,25.466],[94.808,25.493],[94.826,25.543],[94.915,25.608],[94.936,25.668],[94.971,25.689],[95.007,25.731],[95.04,25.741],[95.05,25.8],[95.009,25.868],[95.012,25.898],[95.048,25.934],[95.096,25.956],[95.159,26.026],[95.186,26.074],[95.165,26.092],[95.118,26.101],[95.126,26.129],[95.123,26.187],[95.142,26.212],[95.115,26.233],[95.128,26.302],[95.121,26.35],[95.129,26.386],[95.073,26.472],[95.116,26.524],[95.108,26.542],[95.154,26.583],[95.149,26.616],[95.208,26.648],[95.234,26.682],[95.304,26.651],[95.336,26.674],[95.429,26.701],[95.459,26.744],[95.483,26.747],[95.508,26.809],[95.545,26.834],[95.603,26.812],[95.627,26.843],[95.632,26.873],[95.667,26.903],[95.716,26.878],[95.751,26.909],[95.769,26.977],[95.796,26.998],[95.876,27.014],[95.946,27.052],[95.969,27.1],[96.011,27.142],[96.025,27.181],[96.091,27.223],[96.155,27.248],[96.185,27.249],[96.231,27.276],[96.271,27.271],[96.299,27.293],[96.377,27.285],[96.423,27.302],[96.518,27.286],[96.595,27.34],[96.606,27.366],[96.796,27.346],[96.847,27.272],[96.884,27.26],[96.885,27.226],[96.857,27.193],[96.9,27.169],[96.956,27.164],[97.03,27.13],[97.072,27.09],[97.095,27.103],[97.142,27.095],[97.166,27.135],[97.09,27.216],[97.089,27.238],[97.055,27.265],[97.03,27.306],[96.998,27.319],[96.962,27.374],[96.954,27.407],[96.903,27.453],[96.93,27.524],[96.913,27.544],[96.912,27.581],[96.897,27.609],[96.942,27.661],[96.983,27.664],[97.036,27.742],[97.099,27.747],[97.104,27.77],[97.165,27.811],[97.188,27.844],[97.249,27.899],[97.294,27.912],[97.357,27.879],[97.38,27.897],[97.373,27.968],[97.413,28.015],[97.376,28.04],[97.326,28.053],[97.31,28.075],[97.346,28.114],[97.324,28.137],[97.378,28.218],[97.295,28.262],[97.252,28.266],[97.209,28.288],[97.171,28.286],[97.14,28.328],[97.081,28.351],[96.988,28.303],[96.926,28.337],[96.89,28.378],[96.835,28.361],[96.77,28.367],[96.757,28.4],[96.727,28.422],[96.641,28.458],[96.571,28.452],[96.505,28.411],[96.457,28.414],[96.428,28.376],[96.417,28.341],[96.395,28.336],[96.363,28.386],[96.317,28.378],[96.291,28.4],[96.253,28.407],[96.349,28.467],[96.364,28.487],[96.319,28.526],[96.345,28.554],[96.392,28.556],[96.487,28.633],[96.467,28.675],[96.525,28.701],[96.579,28.712],[96.604,28.744],[96.603,28.793],[96.526,28.882],[96.53,28.91],[96.508,28.952],[96.481,28.959],[96.466,28.995],[96.498,29.071],[96.423,29.038],[96.356,29.037],[96.294,29.008],[96.22,28.93],[96.161,28.898],[96.135,28.935],[96.172,28.97],[96.171,28.999],[96.129,29.07],[96.192,29.116],[96.211,29.148],[96.245,29.166],[96.316,29.171],[96.35,29.184],[96.379,29.243],[96.364,29.292],[96.282,29.242],[96.244,29.239],[96.192,29.29],[96.179,29.337],[96.141,29.402],[96.081,29.461],[96.031,29.453],[96.009,29.428],[95.942,29.388],[95.862,29.395],[95.831,29.359],[95.777,29.362],[95.66,29.272],[95.619,29.25],[95.578,29.254],[95.572,29.223],[95.527,29.216],[95.537,29.169],[95.531,29.13],[95.481,29.143],[95.477,29.087],[95.44,29.037],[95.411,29.031],[95.348,29.041],[95.288,29.063],[95.242,29.064],[95.242,29.111],[95.166,29.109],[95.106,29.119],[95.095,29.14],[95.016,29.158],[94.916,29.152],[94.879,29.175],[94.8,29.166],[94.793,29.215],[94.741,29.275],[94.689,29.318],[94.631,29.341],[94.605,29.289],[94.579,29.275],[94.551,29.221],[94.487,29.213],[94.438,29.223],[94.375,29.185],[94.353,29.148],[94.294,29.145],[94.224,29.088],[94.186,29.029],[94.164,28.957],[94.075,28.891],[94.037,28.851],[94.007,28.841],[93.987,28.804],[94.011,28.779],[93.973,28.743],[93.962,28.694],[93.936,28.666],[93.851,28.707],[93.784,28.663],[93.74,28.685],[93.619,28.653],[93.536,28.661],[93.514,28.682],[93.453,28.675],[93.414,28.654],[93.339,28.643],[93.286,28.54],[93.278,28.501],[93.229,28.474],[93.18,28.435],[93.224,28.405],[93.223,28.335],[93.189,28.318],[93.122,28.328],[93.11,28.312],[93.05,28.303],[92.997,28.229],[92.963,28.259],[92.923,28.24],[92.906,28.212],[92.853,28.183],[92.826,28.179],[92.806,28.207],[92.746,28.158],[92.68,28.119],[92.665,28.07],[92.7,28.049],[92.742,27.993],[92.688,27.927],[92.658,27.902],[92.615,27.895],[92.556,27.824],[92.503,27.854],[92.466,27.818],[92.416,27.831],[92.385,27.801],[92.319,27.788],[92.302,27.802],[92.268,27.872],[92.219,27.87],[92.109,27.809],[92.051,27.764],[91.994,27.771],[91.928,27.723],[91.862,27.74],[91.829,27.805],[91.761,27.8],[91.71,27.808],[91.663,27.853],[91.629,27.86],[91.559,27.856],[91.566,27.819],[91.615,27.822],[91.645,27.769],[91.629,27.7],[91.573,27.66],[91.563,27.63],[91.584,27.608],[91.566,27.583],[91.594,27.542],[91.652,27.483],[91.695,27.505],[91.731,27.469],[91.767,27.465],[91.861,27.485],[91.872,27.471],[91.923,27.474],[91.944,27.46],[92.019,27.475],[92.027,27.44],[92.058,27.4],[92.048,27.363],[92.065,27.327],[92.12,27.29],[92.045,27.269],[92.073,27.233],[92.058,27.19],[92.027,27.168],[92.036,27.135],[92.023,27.11],[92.044,27.051],[92.076,27.042],[92.118,26.974],[92.116,26.895],[92.103,26.867],[92.057,26.847],[91.984,26.858],[91.964,26.883],[91.892,26.919],[91.859,26.913],[91.824,26.864],[91.721,26.812],[91.69,26.806],[91.626,26.821],[91.592,26.805],[91.495,26.791],[91.441,26.815],[91.408,26.84],[91.376,26.795],[91.337,26.781],[91.297,26.787],[91.237,26.812],[91.146,26.811],[91.098,26.822],[91.054,26.781],[90.992,26.791],[90.816,26.776],[90.693,26.771],[90.676,26.784],[90.547,26.817],[90.417,26.905],[90.357,26.901],[90.348,26.875],[90.3,26.848],[90.231,26.859],[90.201,26.835],[90.188,26.807],[90.195,26.773],[90.05,26.73],[89.967,26.723],[89.897,26.724],[89.863,26.737],[89.862,26.701],[89.807,26.711],[89.771,26.701],[89.753,26.735],[89.724,26.723],[89.64,26.747],[89.651,26.776],[89.569,26.799],[89.56,26.813],[89.461,26.806],[89.439,26.84],[89.39,26.842],[89.379,26.862],[89.274,26.828],[89.262,26.814],[89.177,26.819],[89.134,26.808],[89.103,26.842],[89.096,26.892],[89.03,26.923],[88.98,26.917],[88.944,26.934],[88.952,26.968],[88.922,26.994],[88.875,26.947],[88.871,26.993],[88.88,27.066],[88.873,27.098],[88.812,27.127],[88.755,27.141],[88.757,27.165],[88.799,27.208],[88.803,27.248],[88.831,27.262],[88.879,27.261],[88.903,27.273],[88.919,27.321],[88.881,27.361],[88.806,27.407],[88.777,27.468],[88.791,27.516],[88.77,27.571],[88.805,27.594],[88.815,27.646],[88.848,27.668],[88.859,27.738],[88.856,27.815],[88.88,27.829],[88.882,27.892],[88.86,27.927],[88.837,27.929],[88.844,27.993],[88.793,28.049],[88.756,28.076],[88.667,28.076],[88.619,28.098],[88.566,28.09],[88.533,28.033],[88.494,28.053],[88.467,28.017],[88.429,28.007],[88.399,27.978],[88.352,27.99],[88.286,27.966],[88.251,27.943],[88.237,27.971],[88.188,27.943],[88.145,27.964],[88.121,27.922],[88.14,27.877],[88.203,27.839],[88.186,27.81],[88.178,27.746],[88.158,27.741],[88.145,27.665],[88.12,27.645],[88.114,27.611],[88.09,27.596],[88.059,27.534],[88.044,27.478],[88.072,27.446],[88.047,27.405],[88.042,27.37],[88.067,27.336],[88.032,27.286],[88.019,27.236],[88.007,27.143],[87.991,27.13],[88.038,27.036],[88.078,27.035],[88.119,26.987],[88.12,26.95],[88.145,26.915],[88.136,26.899],[88.174,26.86],[88.168,26.837],[88.188,26.772],[88.182,26.719],[88.168,26.697],[88.163,26.646],[88.142,26.626],[88.124,26.573],[88.105,26.561],[88.106,26.477],[88.096,26.44],[88.007,26.361],[87.992,26.393],[87.932,26.418],[87.9,26.477],[87.858,26.464],[87.849,26.436],[87.794,26.469],[87.776,26.425],[87.734,26.408],[87.711,26.427],[87.652,26.393],[87.593,26.392],[87.517,26.431],[87.467,26.44],[87.428,26.422],[87.389,26.419],[87.356,26.388],[87.341,26.348],[87.314,26.368],[87.266,26.374],[87.248,26.414],[87.186,26.414],[87.163,26.404],[87.092,26.45],[87.072,26.586],[87.043,26.568],[87.015,26.532],[86.932,26.517],[86.93,26.49],[86.895,26.488],[86.893,26.461],[86.834,26.439],[86.766,26.459],[86.737,26.424],[86.691,26.451],[86.639,26.463],[86.626,26.48],[86.572,26.496],[86.542,26.539],[86.499,26.542],[86.456,26.568],[86.396,26.585],[86.308,26.62],[86.251,26.614],[86.234,26.594],[86.197,26.598],[86.172,26.617],[86.136,26.606],[86.12,26.63],[86.03,26.666],[85.955,26.647],[85.946,26.622],[85.914,26.609],[85.858,26.569],[85.851,26.609],[85.818,26.603],[85.802,26.624],[85.749,26.639],[85.726,26.671],[85.734,26.796],[85.721,26.82],[85.681,26.843],[85.607,26.858],[85.543,26.838],[85.495,26.797],[85.452,26.781],[85.408,26.791],[85.371,26.758],[85.335,26.742],[85.307,26.752],[85.197,26.771],[85.177,26.815],[85.193,26.866],[85.1,26.871],[85.058,26.849],[84.971,26.917],[84.963,26.961],[84.909,26.968],[84.864,26.984],[84.854,27.008],[84.816,27.02],[84.794,26.996],[84.757,27.003],[84.643,27.046],[84.643,27.065],[84.675,27.101],[84.686,27.229],[84.622,27.337],[84.512,27.353],[84.44,27.37],[84.347,27.375],[84.283,27.397],[84.254,27.454],[84.149,27.487],[84.151,27.517],[84.098,27.517],[84.095,27.489],[84.069,27.481],[84.061,27.453],[84.024,27.433],[83.995,27.446],[83.871,27.436],[83.833,27.425],[83.883,27.377],[83.864,27.347],[83.831,27.37],[83.614,27.469],[83.389,27.48],[83.385,27.443],[83.405,27.419],[83.388,27.376],[83.337,27.333],[83.293,27.336],[83.265,27.365],[83.272,27.383],[83.211,27.423],[83.188,27.454],[83.166,27.457],[83.035,27.449],[82.954,27.468],[82.929,27.501],[82.833,27.502],[82.801,27.496],[82.736,27.502],[82.739,27.551],[82.752,27.585],[82.735,27.609],[82.73,27.653],[82.706,27.713],[82.666,27.716],[82.605,27.706],[82.541,27.686],[82.517,27.691],[82.449,27.679],[82.402,27.704],[82.368,27.743],[82.303,27.773],[82.208,27.844],[82.154,27.867],[82.121,27.866],[82.062,27.922],[81.968,27.929],[81.9,27.854],[81.83,27.899],[81.805,27.904],[81.698,27.988],[81.644,27.994],[81.547,28.049],[81.478,28.083],[81.484,28.119],[81.45,28.141],[81.447,28.161],[81.374,28.177],[81.367,28.142],[81.318,28.145],[81.321,28.198],[81.233,28.289],[81.234,28.325],[81.211,28.361],[81.08,28.385],[81.013,28.438],[80.952,28.448],[80.906,28.466],[80.909,28.498],[80.875,28.511],[80.844,28.5],[80.785,28.529],[80.769,28.566],[80.715,28.568],[80.651,28.634],[80.612,28.64],[80.58,28.661],[80.591,28.68],[80.54,28.691],[80.503,28.665],[80.523,28.554],[80.47,28.594],[80.459,28.623],[80.414,28.639],[80.361,28.635],[80.326,28.666],[80.317,28.7],[80.279,28.71],[80.251,28.758],[80.216,28.756],[80.171,28.783],[80.118,28.829],[80.065,28.838],[80.058,28.917],[80.096,28.976],[80.127,29.006],[80.129,29.063],[80.143,29.099],[80.183,29.137],[80.233,29.118],[80.271,29.148],[80.258,29.165],[80.263,29.206],[80.294,29.198],[80.304,29.285],[80.296,29.325],[80.271,29.365],[80.276,29.391],[80.246,29.408],[80.246,29.447],[80.299,29.491],[80.342,29.51],[80.407,29.595],[80.416,29.651],[80.383,29.677],[80.365,29.747],[80.386,29.752],[80.408,29.793],[80.5,29.817],[80.553,29.853],[80.579,29.932],[80.605,29.959],[80.674,29.957],[80.719,30.001],[80.737,29.999],[80.806,30.09],[80.845,30.102],[80.877,30.134],[80.867,30.17],[80.903,30.215],[80.918,30.19],[80.96,30.179],[81.029,30.196],[81.03,30.249],[81.006,30.263],[80.863,30.299],[80.822,30.316],[80.746,30.397],[80.714,30.408],[80.586,30.482],[80.539,30.449],[80.498,30.484],[80.448,30.498],[80.413,30.525],[80.386,30.515],[80.319,30.559],[80.227,30.579],[80.221,30.642],[80.198,30.68],[80.235,30.688],[80.25,30.742],[80.217,30.749],[80.178,30.804],[80.158,30.806],[80.122,30.777],[80.012,30.864],[79.962,30.89],[79.929,30.882],[79.89,30.919],[79.876,30.968],[79.816,30.974],[79.775,30.989],[79.665,30.97],[79.602,30.94],[79.556,30.957],[79.519,31.027],[79.425,31.03],[79.425,31.071],[79.399,31.108],[79.333,31.127],[79.301,31.168],[79.303,31.19],[79.28,31.235],[79.252,31.243],[79.271,31.287],[79.246,31.33],[79.192,31.363],[79.144,31.425],[79.056,31.455],[79.052,31.42],[79.018,31.386],[79.011,31.357],[78.948,31.32],[78.933,31.253],[78.899,31.263],[78.892,31.288],[78.855,31.323],[78.864,31.346],[78.848,31.379],[78.811,31.409],[78.813,31.45],[78.774,31.474],[78.736,31.481],[78.729,31.52],[78.819,31.572],[78.853,31.607],[78.807,31.647],[78.798,31.682],[78.754,31.686],[78.71,31.8],[78.732,31.823],[78.753,31.885],[78.75,31.904],[78.778,31.935],[78.789,31.993],[78.758,32.001],[78.683,32.073],[78.657,32.111],[78.621,32.112],[78.596,32.158],[78.615,32.209],[78.559,32.249],[78.463,32.24],[78.483,32.281],[78.485,32.349],[78.515,32.375],[78.533,32.41],[78.496,32.422],[78.466,32.455],[78.461,32.504],[78.408,32.527],[78.428,32.563],[78.503,32.587],[78.515,32.604],[78.566,32.615],[78.605,32.591],[78.648,32.644],[78.743,32.655],[78.775,32.621],[78.782,32.596],[78.759,32.568],[78.775,32.505],[78.822,32.434],[78.947,32.361],[78.971,32.336],[79.004,32.375],[79.045,32.387],[79.094,32.377],[79.135,32.432],[79.132,32.47],[79.182,32.474],[79.23,32.513],[79.26,32.523],[79.305,32.586],[79.373,32.56],[79.385,32.523],[79.429,32.524],[79.525,32.631],[79.537,32.66],[79.61,32.723],[79.588,32.766],[79.557,32.768],[79.518,32.827],[79.465,32.88],[79.446,32.912],[79.398,32.962],[79.346,32.989],[79.387,33.042],[79.368,33.083],[79.373,33.106],[79.423,33.165],[79.443,33.2],[79.446,33.258],[79.356,33.282],[79.3,33.273],[79.224,33.296],[79.108,33.289],[79.016,33.328],[78.978,33.336],[78.927,33.454],[78.944,33.526],[78.906,33.574],[78.915,33.606],[78.94,33.618],[78.989,33.615],[79.031,33.624],[79.095,33.613],[79.078,33.686],[79.046,33.674],[79.016,33.702],[79.06,33.776],[79.013,33.783],[78.945,33.926],[78.918,33.964],[78.953,34.013],[79.001,34.034],[79.08,34.01],[79.138,34.018],[79.148,34.055],[79.206,34.04],[79.232,34.047],[79.283,34.028],[79.374,34.027],[79.416,33.999],[79.443,34.021],[79.415,34.042],[79.421,34.076],[79.466,34.094],[79.496,34.124],[79.494,34.185],[79.54,34.191],[79.592,34.236],[79.597,34.278],[79.569,34.32],[79.567,34.406],[79.528,34.416],[79.522,34.464],[79.584,34.478],[79.653,34.481],[79.682,34.471],[79.791,34.467],[79.816,34.483],[79.821,34.514],[79.77,34.538],[79.794,34.581],[79.777,34.61],[79.829,34.636],[79.878,34.675],[79.945,34.661],[79.974,34.677],[80.043,34.686],[80.069,34.701],[80.075,34.805],[80.127,34.873],[80.187,35.008],[80.185,35.131],[80.243,35.208],[80.251,35.248],[80.297,35.353],[80.298,35.417],[80.345,35.461],[80.312,35.588],[80.213,35.639],[80.129,35.657],[80.101,35.706],[80.078,35.726],[80.043,35.803],[80.016,35.826],[79.968,35.825],[79.887,35.774],[79.751,35.797],[79.682,35.832],[79.619,35.845],[79.536,35.88],[79.44,35.894],[79.41,35.986],[79.401,35.993],[79.252,35.985],[79.213,35.955],[79.204,35.928],[79.213,35.878],[79.165,35.838],[79.142,35.835],[79.032,35.848],[78.982,35.89],[78.925,35.868],[78.82,35.857],[78.786,35.869],[78.673,35.854],[78.646,35.821],[78.61,35.812],[78.534,35.763],[78.443,35.784],[78.404,35.736],[78.338,35.719],[78.277,35.718],[78.285,35.664],[78.256,35.646],[78.212,35.666],[78.197,35.623],[78.16,35.581],[78.165,35.552],[78.137,35.537],[78.075,35.559],[78.056,35.582],[77.991,35.585],[77.968,35.572],[77.912,35.461],[77.869,35.473],[77.829,35.505],[77.786,35.488],[77.736,35.521],[77.729,35.477],[77.629,35.465],[77.496,35.478],[77.444,35.459],[77.385,35.474],[77.332,35.53],[77.389,35.539],[77.431,35.514],[77.473,35.518],[77.472,35.584],[77.44,35.602],[77.438,35.656],[77.366,35.715],[77.321,35.701],[77.242,35.708],[77.213,35.733],[77.18,35.73],[77.162,35.765],[77.116,35.798],[77.045,35.777],[77.001,35.776],[76.936,35.789],[76.861,35.836],[76.807,35.85],[76.783,35.905],[76.732,35.955],[76.814,36.041],[76.784,36.072],[76.72,36.098],[76.711,36.14],[76.645,36.198],[76.617,36.178],[76.565,36.186],[76.549,36.202],[76.481,36.22],[76.449,36.272],[76.437,36.31],[76.354,36.369],[76.274,36.357],[76.201,36.397],[76.164,36.406],[76.112,36.46],[76.053,36.491],[75.945,36.512],[75.891,36.533],[75.852,36.558],[75.807,36.563],[75.744,36.608],[75.663,36.722],[75.613,36.775],[75.488,36.816],[75.463,36.83],[75.45,36.889],[75.409,36.904],[75.425,36.952],[75.404,36.982],[75.354,36.988],[75.347,37.053],[75.321,37.064],[75.211,37.05],[75.153,36.988],[75.109,36.962],[75.016,36.991],[74.954,36.955],[74.916,36.92],[74.835,37.005],[74.841,37.032],[74.783,37.041],[74.742,37.023],[74.712,37.064]]]]},"properties":{"Country":"India","Area":3179091.92631,"Country_Co":91}}
]}